[{"OBJECT_NAME":"STARLINK-4312","OBJECT_ID":"2022-077Y","EPOCH":"2026-03-09T22:37:33.331296","MEAN_MOTION":15.01259749,"ECCENTRICITY":0.00020696,"INCLINATION":97.6015,"RA_OF_ASC_NODE":250.4555,"ARG_OF_PERICENTER":194.3253,"MEAN_ANOMALY":165.7913,"EPHEMERIS_TYPE":0,"CLASSIFICATION_TYPE":"U","NORAD_CAT_ID":53065,"ELEMENT_SET_NO":999,"REV_AT_EPOCH":20095,"BSTAR":4.464884e-6,"MEAN_MOTION_DOT":-1.0e-8,"MEAN_MOTION_DDOT":0},{"OBJECT_NAME":"HELIOS 2A","OBJECT_ID":"2004-049A","EPOCH":"2026-03-09T21:12:23.746752","MEAN_MOTION":15.02457036,"ECCENTRICITY":0.00022964,"INCLINATION":98.268,"RA_OF_ASC_NODE":116.0483,"ARG_OF_PERICENTER":298.4853,"MEAN_ANOMALY":61.6139,"EPHEMERIS_TYPE":0,"CLASSIFICATION_TYPE":"U","NORAD_CAT_ID":28492,"ELEMENT_SET_NO":999,"REV_AT_EPOCH":13885,"BSTAR":0.0002328623,"MEAN_MOTION_DOT":3.02e-5,"MEAN_MOTION_DDOT":0}]
